STARLINK-36258
1 67104U 25299C   26061.16668981 -.02363326  00000+0 -86758-1 0  9996
2 67104  43.0015 211.7033 0001934 282.4481  58.5849 15.31116243  5894
STARLINK-32664
1 62204U 24229N   26061.11284845  .00112918  00000+0  36923-2 0  9997
2 62204  43.0020 313.4165 0004475 234.3032 125.7404 15.30586518 69409
STARLINK-32264
1 61642U 24191X   26061.07836572  .00114511  00000+0  38251-2 0  9992
2 61642  42.9987 200.8438 0002985 337.4050  22.6671 15.29894287 76339
STARLINK-31104
1 58672U 23211F   26061.16668981  .00126646  00000+0  42419-2 0  9993
2 58672  42.9992 126.9863 0003200  51.4042 286.5646 15.29745508  5784
STARLINK-32784
1 62607U 25008W   26061.08899075  .00090097  00000+0  30634-2 0  9999
2 62607  43.0016 319.8296 0004442 252.1139 107.9229 15.29442324 64479
